
ICEYE-X17               
1 52762U 22057AG  25025.78876176  .00076210  00000+0  15413-2 0  9993
2 52762  97.5755 161.8781 0008915  52.4137 307.7920 15.46146497148557
SHERPA-AC1              
1 52763U 22057AH  25025.33558126  .00013120  00000+0  50568-3 0  9999
2 52763  97.5995 154.4785 0010675  89.1107 271.1354 15.26410899147974
NUSAT-29 (EDITH CLARKE) 
1 52764U 22057AJ  25025.79031628  .00051124  00000+0  11112-2 0  9990
2 52764  97.4636 152.9915 0004466 357.5018   2.6207 15.44166511148859
ARMSAT1 URDANETA        
1 52765U 22057AK  25025.80804213  .00029298  00000+0  56639-3 0  9992
2 52765  97.5965 166.8025 0007280  50.1266 310.0623 15.47703716148800
VARISAT 1C & CELESTIS-21
1 52766U 22057AL  25025.37035972  .00071669  00000+0  10900-2 0  9992
2 52766  97.5967 165.5902 0005625  46.7090 313.4632 15.54284640148670
PLATFORM-1              
1 52770U 22057AQ  25025.77841074  .00029440  00000+0  69067-3 0  9998
2 52770  97.5921 162.2384 0008200  63.7832 296.4256 15.41982216148557
OMNI-L2                 
1 52771U 22057AR  25025.23013422  .00006279  00000+0  81533-3 0  9995
2 52771  97.5217 115.7979 0006305 157.5776 202.5714 14.81037234145684
GUARDIAN                
1 52775U 22057AV  25025.76451854  .00051227  00000+0  10445-2 0  9998
2 52775  97.5898 160.9725 0005471  84.1075 276.0797 15.46044663148455
GEESAT-1 01             
1 52785U 22058A   25025.70359308  .00009365  00000+0  88898-3 0  9999
2 52785  49.9943  66.1582 0006646  15.0711 345.0429 14.94050323144155
GEESAT-1 02             
1 52786U 22058B   25025.59903389  .00009243  00000+0  87770-3 0  9994
2 52786  50.0002  66.7751 0003360   8.5357 351.5643 14.94057515144130
GEESAT-1 03             
1 52787U 22058C   25025.69579906  .00009430  00000+0  89467-3 0  9993
2 52787  49.9881  65.5670 0006294  12.3152 347.7944 14.94066005144141
GEESAT-1 04             
1 52788U 22058D   25025.71057326  .00009643  00000+0  91503-3 0  9994
2 52788  50.0045  66.4099 0002818 358.8089   1.2846 14.94041253144148
GEESAT-1 05             
1 52789U 22058E   25025.72575396  .00008858  00000+0  84196-3 0  9995
2 52789  49.9886  64.9812 0006844 355.4605   4.6274 14.94059854144154
GEESAT-1 06             
1 52790U 22058F   25025.67361560  .00008975  00000+0  85270-3 0  9991
2 52790  50.0058  66.3068 0005978 340.5835  19.4879 14.94063838144147
GEESAT-1 07             
1 52791U 22058G   25025.62162669  .00009043  00000+0  85918-3 0  9992
2 52791  49.9900  65.2080 0005613  13.3793 346.7297 14.94055640144149
GEESAT-1 08             
1 52792U 22058H   25025.71793277  .00009429  00000+0  89505-3 0  9992
2 52792  49.9934  64.6965 0005400  28.3177 331.8058 14.94047027144160
GEESAT-1 09             
1 52793U 22058J   25025.61438561  .00008961  00000+0  85095-3 0  9994
2 52793  49.9986  65.9950 0009047 339.8810  20.1775 14.94070893144173
NILESAT 301             
1 52817U 22061A   25025.39451662 -.00000038  00000+0  00000+0 0  9994
2 52817   0.0528 334.5497 0005068 346.4611 298.9201  1.00272267  9646
STARLINK-4091           
1 52830U 22062A   25025.54570129 -.00001124  00000+0 -52516-4 0  9999
2 52830  53.2202  66.5439 0001730  89.2708 270.8483 15.08829308144164
STARLINK-4089           
1 52831U 22062B   25025.33958910  .00000827  00000+0  70091-4 0  9990
2 52831  53.2194  67.2762 0001963  78.1457 281.9755 15.08836487144136
STARLINK-4083           
1 52832U 22062C   25025.40215297 -.00000211  00000+0  48057-5 0  9999
2 52832  53.2178  66.9925 0001413  91.5793 268.5361 15.08833014144146
STARLINK-4086           
1 52833U 22062D   25025.39849653  .00004270  00000+0  28625-3 0  9992
2 52833  53.2173  67.0111 0002398  97.2031 262.9234 15.08835943144142
STARLINK-4108           
1 52834U 22062E   25025.58981230 -.00007039  00000+0 -42399-3 0  9994
2 52834  53.2175  66.1511 0001635 104.4490 255.6684 15.08892400144174
STARLINK-4080           
1 52835U 22062F   25025.38741153 -.00001112  00000+0 -51902-4 0  9998
2 52835  53.2193  67.0577 0001080 138.1451 221.9624 15.08792556144140
STARLINK-4043           
1 52836U 22062G   25025.54667265 -.00000164  00000+0  77806-5 0  9995
2 52836  53.2187  66.6633 0001537  84.7142 275.4026 15.08829563144163
STARLINK-4036           
1 52837U 22062H   25025.37639061 -.00000161  00000+0  79752-5 0  9999
2 52837  53.2187  67.1109 0001459  84.0663 276.0496 15.08837300144146
STARLINK-4092           
1 52838U 22062J   25025.51254778 -.00000404  00000+0 -72715-5 0  9997
2 52838  53.2169  66.4878 0001383  90.6669 269.4481 15.08844670144167
STARLINK-4048           
1 52839U 22062K   25025.43528202 -.00001831  00000+0 -97015-4 0  9999
2 52839  53.2185  66.8429 0001630  80.2358 279.8818 15.08829508144642
STARLINK-4049           
1 52840U 22062L   25025.38376187 -.00000041  00000+0  15497-4 0  9993
2 52840  53.2165  67.1923 0001412  93.9456 266.1697 15.08838576144147
STARLINK-4065           
1 52841U 22062M   25025.42423388 -.00000073  00000+0  13488-4 0  9998
2 52841  53.2173  66.8934 0001449  90.4987 269.6171 15.08831653144645
STARLINK-4046           
1 52842U 22062N   25025.50517922  .00000669  00000+0  60108-4 0  9997
2 52842  53.2194  66.4540 0001482  91.3759 268.7403 15.08841039144650
STARLINK-4188           
1 52843U 22062P   25025.48311314 -.00004187  00000+0 -24512-3 0  9991
2 52843  53.2187  66.6319 0002025  88.9632 271.1592 15.08834301144656
STARLINK-4208           
1 52844U 22062Q   25025.43158800  .00002982  00000+0  20536-3 0  9997
2 52844  53.2193  66.8621 0001841  68.7987 291.3202 15.08839730144648
STARLINK-4168           
1 52845U 22062R   25025.42056028 -.00000464  00000+0 -11074-4 0  9999
2 52845  53.2181  66.9778 0001634  85.7218 274.3961 15.08834113144649
STARLINK-4212           
1 52846U 22062S   25025.48775339 -.00000587  00000+0 -18787-4 0  9993
2 52846  53.2204  66.6176 0002172  98.4929 261.6309 15.08832193144655
STARLINK-4206           
1 52847U 22062T   25025.40951138  .00000632  00000+0  57826-4 0  9995
2 52847  53.2204  66.9638 0001553 102.9177 257.1988 15.08835952144154
STARLINK-4202           
1 52848U 22062U   25025.42791790 -.00000344  00000+0 -35180-5 0  9996
2 52848  53.2180  66.8767 0001500  88.6552 271.4612 15.08830596144645
STARLINK-4197           
1 52849U 22062V   25025.40307258  .00000482  00000+0  48391-4 0  9995
2 52849  53.2184  56.9894 0001742  85.1409 274.9782 15.08839691144283
STARLINK-4187           
1 52850U 22062W   25025.38107266  .00000245  00000+0  33500-4 0  9994
2 52850  53.2174  67.4457 0001234  82.8764 277.2368 15.08833522144632
STARLINK-3809           
1 52851U 22062X   25025.46562762  .00002555  00000+0  17867-3 0  9993
2 52851  53.2182  56.7069 0001954  70.9215 289.1989 15.08815566144785
STARLINK-4184           
1 52852U 22062Y   25025.40675029  .00001305  00000+0  10007-3 0  9990
2 52852  53.2183  56.9719 0001520  88.7955 271.3212 15.08835710144288
STARLINK-4189           
1 52853U 22062Z   25025.45554182  .00005697  00000+0  37567-3 0  9990
2 52853  53.2189  56.7236 0001384  78.5443 281.5705 15.08843920144781
STARLINK-4204           
1 52854U 22062AA  25025.46195963  .00005043  00000+0  33496-3 0  9992
2 52854  53.2187  56.7285 0001847 100.1257 259.9944 15.08813754144789
STARLINK-4209           
1 52855U 22062AB  25025.31843327 -.00000304  00000+0 -10011-5 0  9998
2 52855  53.2178  57.3692 0001194  86.7040 273.4088 15.08832242144764
STARLINK-4201           
1 52856U 22062AC  25025.45923245 -.00001007  00000+0 -45202-4 0  9992
2 52856  53.2174  56.7879 0001523  99.7423 260.3741 15.08834753144788
STARLINK-4199           
1 52857U 22062AD  25025.37731256  .00004569  00000+0  30499-3 0  9998
2 52857  53.2193  57.1067 0001474  95.3173 264.7988 15.08839142144286
STARLINK-4198           
1 52858U 22062AE  25025.45460022  .00000370  00000+0  41339-4 0  9990
2 52858  53.2177  56.7884 0001482  97.8006 262.3154 15.08827763144782
STARLINK-4196           
1 52859U 22062AF  25025.37362387 -.00012679  00000+0 -77966-3 0  9998
2 52859  53.2179  57.1219 0002378 108.8658 251.2592 15.08849965144773
STARLINK-4191           
1 52860U 22062AG  25025.31475058  .00000088  00000+0  23614-4 0  9995
2 52860  53.2184  57.3886 0001619  93.6925 266.4252 15.08834707144272
STARLINK-4112           
1 52861U 22062AH  25025.35618634 -.00001730  00000+0 -90631-4 0  9999
2 52861  53.2179  57.2082 0001516  96.0433 264.0732 15.08841441144776
STARLINK-4010           
1 52862U 22062AJ  25025.56863012 -.00029988  00000+0 -18678-2 0  9999
2 52862  53.2188  56.2433 0002451 128.2134 231.9079 15.08957750144803
STARLINK-4270           
1 52863U 22062AK  25025.56131032 -.00000254  00000+0  21265-5 0  9993
2 52863  53.2183  56.2765 0001388 101.5925 258.5223 15.08836002144315
STARLINK-4267           
1 52864U 22062AL  25025.56498789  .00000789  00000+0  67639-4 0  9995
2 52864  53.2186  56.2606 0001619  93.1307 266.9871 15.08841906144311
STARLINK-4274           
1 52865U 22062AM  25025.35155071 -.00000771  00000+0 -30377-4 0  9999
2 52865  53.2175  57.2163 0001542  97.4195 262.6973 15.08838373144282
STARLINK-4272           
1 52866U 22062AN  25025.55763539 -.00000674  00000+0 -24295-4 0  9990
2 52866  53.2184  56.2934 0001401 121.9911 238.1217 15.08831774144312
STARLINK-4126           
1 52867U 22062AP  25025.34419257  .00000141  00000+0  26934-4 0  9992
2 52867  53.2183  57.2528 0001601  92.0965 268.0211 15.08836279144288
STARLINK-4261           
1 52868U 22062AQ  25025.35523128  .00000623  00000+0  57209-4 0  9991
2 52868  53.2188  57.2316 0001511  99.0787 261.0376 15.08839647144285
STARLINK-4266           
1 52869U 22062AR  25025.33776419 -.00001277  00000+0 -62160-4 0  9993
2 52869  53.2193  47.2785 0001451 102.5597 257.5558 15.08822254144900
